NORAD_CAT_ID,OBJECT_NAME,OBJECT_TYPE,EPOCH,MEAN_MOTION,ECCENTRICITY,INCLINATION,RA_OF_ASC_NODE,ARG_OF_PERICENTER,MEAN_ANOMALY,BSTAR,MEAN_MOTION_DOT,MEAN_MOTION_DDOT,TLE_LINE0,TLE_LINE1,TLE_LINE2,SEMIMAJOR_AXIS,PERIOD,APOGEE,PERIGEE,DECAYED
53250.0,STARLINK-4059,PAYLOAD,2023-02-22 17:38:07,15.08864792,0.0001232,53.215,141.3927,88.3554,271.758,0.0014158,0.00022332,0.0,0 STARLINK-4059,1 53250U 22086J   23053.73481351  .00022332  00000-0  14158-2 0  9991,2 53250  53.2150 141.3927 0001232  88.3554 271.7580 15.08864792 33366,6917.805,95.436,540.522,538.817,0.0
53250.0,STARLINK-4059,PAYLOAD,2023-02-22 22:24:17,15.08832872,8.16e-05,53.2152,140.5007,127.6268,232.4798,-0.00060376,-9.882e-05,0.0,0 STARLINK-4059,1 53250U 22086J   23053.93353665 -.00009882  00000-0 -60376-3 0  9990,2 53250  53.2152 140.5007 0000816 127.6268 232.4798 15.08832872 33194,6917.902,95.438,540.332,539.203,0.0
53250.0,STARLINK-4059,PAYLOAD,2023-02-23 11:07:23,15.08835833,0.0001121,53.2145,138.121,97.1849,262.927,0.0014929,0.00023549,0.0,0 STARLINK-4059,1 53250U 22086J   23054.46346319  .00023549  00000-0  14929-2 0  9993,2 53250  53.2145 138.1210 0001121  97.1849 262.9270 15.08835833 33475,6917.893,95.438,540.534,538.983,0.0
53250.0,STARLINK-4059,PAYLOAD,2023-02-23 15:53:32,15.0884942,0.0001142,53.2147,137.2291,89.5911,270.5212,0.0018933,0.0002998,0.0,0 STARLINK-4059,1 53250U 22086J   23054.66218245  .00029980  00000-0  18933-2 0  9995,2 53250  53.2147 137.2291 0001142  89.5911 270.5212 15.08849420 33506,6917.852,95.437,540.507,538.927,0.0
53250.0,STARLINK-4059,PAYLOAD,2023-02-23 22:15:05,15.08844287,0.0001448,53.2143,136.0397,86.3605,273.7553,0.0011789,0.00018526,0.0,0 STARLINK-4059,1 53250U 22086J   23054.92714479  .00018526  00000-0  11789-2 0  9990,2 53250  53.2143 136.0397 0001448  86.3605 273.7553 15.08844287 33341,6917.867,95.437,540.734,538.731,0.0
53250.0,STARLINK-4059,PAYLOAD,2023-02-24 14:08:56,15.08853525,0.0001436,53.2147,133.0657,86.2374,273.8782,0.00072567,0.00011284,0.0,0 STARLINK-4059,1 53250U 22086J   23055.58954186  .00011284  00000-0  72567-3 0  9990,2 53250  53.2147 133.0657 0001436  86.2374 273.8782 15.08853525 33643,6917.839,95.437,540.697,538.711,0.0
53250.0,STARLINK-4059,PAYLOAD,2023-02-24 17:19:42,15.08860453,0.0001433,53.2146,132.4703,81.7761,278.3393,0.00090093,0.00014087,0.0,0 STARLINK-4059,1 53250U 22086J   23055.72201970  .00014087  00000-0  90093-3 0  9990,2 53250  53.2146 132.4703 0001433  81.7761 278.3393 15.08860453 33662,6917.818,95.436,540.674,538.692,0.0
53250.0,STARLINK-4059,PAYLOAD,2023-02-24 22:05:52,15.08823697,9.49e-05,53.214,131.5791,118.1212,241.9876,-0.00049956,-8.226e-05,0.0,0 STARLINK-4059,1 53250U 22086J   23055.92074465 -.00008226  00000-0 -49956-3 0  9991,2 53250  53.2140 131.5791 0000949 118.1212 241.9876 15.08823697 33492,6917.93,95.439,540.452,539.139,0.0
53250.0,STARLINK-4059,PAYLOAD,2023-02-25 12:24:21,15.08830875,0.0001039,53.2134,128.9035,102.1408,257.97,0.0014373,0.00022655,0.0,0 STARLINK-4059,1 53250U 22086J   23056.51691163  .00022655  00000-0  14373-2 0  9991,2 53250  53.2134 128.9035 0001039 102.1408 257.9700 15.08830875 33586,6917.908,95.438,540.492,539.055,0.0
53250.0,STARLINK-4059,PAYLOAD,2023-02-25 21:56:40,15.08845138,0.0001035,53.2132,127.1167,106.799,253.3116,0.0015452,0.00024393,0.0,0 STARLINK-4059,1 53250U 22086J   23056.91435246  .00024393  00000-0  15452-2 0  9993,2 53250  53.2132 127.1167 0001035 106.7990 253.3116 15.08845138 33841,6917.865,95.437,540.446,539.014,0.0
53250.0,STARLINK-4059,PAYLOAD,2023-02-26 10:39:44,15.08867317,0.0001077,53.2131,124.739,95.5995,264.5119,0.0014202,0.00022404,0.0,0 STARLINK-4059,1 53250U 22086J   23057.44426729  .00022404  00000-0  14202-2 0  9991,2 53250  53.2131 124.7390 0001077  95.5995 264.5119 15.08867317 33926,6917.797,95.436,540.407,538.917,0.0
53250.0,STARLINK-4059,PAYLOAD,2023-02-26 21:47:26,15.08855249,0.0001422,53.2145,122.6572,73.4396,286.6752,0.00069114,0.00010733,0.0,0 STARLINK-4059,1 53250U 22086J   23057.90794898  .00010733  00000-0  69114-3 0  9992,2 53250  53.2145 122.6572 0001422  73.4396 286.6752 15.08855249 33990,6917.834,95.437,540.682,538.715,0.0
53250.0,STARLINK-4059,PAYLOAD,2023-02-27 15:16:41,15.08894684,0.0001307,53.2141,119.386,77.0889,283.0249,0.0059715,0.00096192,0.0,0 STARLINK-4059,1 53250U 22086J   23058.63659445  .00096192  00000-0  59715-2 0  9999,2 53250  53.2141 119.3860 0001307  77.0889 283.0249 15.08894684 33907,6917.713,95.434,540.482,538.674,0.0
53250.0,STARLINK-4059,PAYLOAD,2023-02-27 21:38:13,15.08860946,8.24e-05,53.2168,118.194,111.1394,248.9686,0.0015931,0.00025172,0.0,0 STARLINK-4059,1 53250U 22086J   23058.90155058  .00025172  00000-0  15931-2 0  9992,2 53250  53.2168 118.1940 0000824 111.1394 248.9686 15.08860946 34142,6917.816,95.436,540.251,539.111,0.0
53250.0,STARLINK-4059,PAYLOAD,2023-02-28 03:59:46,15.08882136,0.000135,53.2144,117.0072,89.134,270.9806,0.0021779,0.00034584,0.0,0 STARLINK-4059,1 53250U 22086J   23059.16650808  .00034584  00000-0  21779-2 0  9998,2 53250  53.2144 117.0072 0001350  89.1340 270.9806 15.08882136 33985,6917.752,95.435,540.55,538.683,0.0
53250.0,STARLINK-4059,PAYLOAD,2023-02-28 10:21:18,15.0889804,0.0001324,53.2148,115.8178,84.4578,275.6565,0.002243,0.00035647,0.0,0 STARLINK-4059,1 53250U 22086J   23059.43145907  .00035647  00000-0  22430-2 0  9993,2 53250  53.2148 115.8178 0001324  84.4578 275.6565 15.08898040 34227,6917.703,95.434,540.484,538.652,0.0
53250.0,STARLINK-4059,PAYLOAD,2023-02-28 15:07:26,15.08908877,0.0001359,53.2147,114.9254,84.3774,275.7373,0.0019615,0.00031126,0.0,0 STARLINK-4059,1 53250U 22086J   23059.63017080  .00031126  00000-0  19615-2 0  9994,2 53250  53.2147 114.9254 0001359  84.3774 275.7373 15.08908877 34257,6917.67,95.433,540.475,538.595,0.0
53250.0,STARLINK-4059,PAYLOAD,2023-03-01 03:50:33,15.08790128,0.0001587,53.2151,112.5455,132.8794,227.2332,-0.00089587,-0.00014498,0.0,0 STARLINK-4059,1 53250U 22086J   23060.16011132 -.00014498  00000-0 -89587-3 0  9997,2 53250  53.2151 112.5455 0001587 132.8794 227.2332 15.08790128 34135,6918.033,95.441,540.996,538.8,0.0
53250.0,STARLINK-4059,PAYLOAD,2023-03-01 19:44:26,15.08817796,0.0001115,53.2155,109.5748,126.8283,233.2812,0.0020619,0.0003266,0.0,0 STARLINK-4059,1 53250U 22086J   23060.82253372  .00032660  00000-0  20619-2 0  9993,2 53250  53.2155 109.5748 0001115 126.8283 233.2812 15.08817796 34235,6917.948,95.439,540.585,539.042,0.0
53250.0,STARLINK-4059,PAYLOAD,2023-03-02 11:38:17,15.08881053,9.36e-05,53.2152,106.5998,122.704,237.4042,0.0025003,0.00039774,0.0,0 STARLINK-4059,1 53250U 22086J   23061.48492596  .00039774  00000-0  25003-2 0  9994,2 53250  53.2152 106.5998 0000936 122.7040 237.4042 15.08881053 34331,6917.755,95.435,540.267,538.972,0.0
53250.0,STARLINK-4059,PAYLOAD,2023-03-03 08:18:17,15.08883225,0.0001257,53.2152,102.7333,133.6156,226.494,0.0019076,0.00030238,0.0,0 STARLINK-4059,1 53250U 22086J   23062.34603409  .00030238  00000-0  19076-2 0  9996,2 53250  53.2152 102.7333 0001257 133.6156 226.4940 15.08883225 34460,6917.748,95.435,540.483,538.744,0.0
53250.0,STARLINK-4059,PAYLOAD,2023-03-03 11:29:03,15.08888405,8.8e-05,53.2141,102.14,118.2536,241.8545,0.00194,0.00030763,0.0,0 STARLINK-4059,1 53250U 22086J   23062.47851144  .00030763  00000-0  19400-2 0  9995,2 53250  53.2141 102.1400 0000880 118.2536 241.8545 15.08888405 34680,6917.732,95.434,540.206,538.989,0.0
53250.0,STARLINK-4059,PAYLOAD,2023-03-03 13:04:26,15.08886923,8.98e-05,53.2144,101.842,111.4064,248.7024,0.0015912,0.00025159,0.0,0 STARLINK-4059,1 53250U 22086J   23062.54474973  .00025159  00000-0  15912-2 0  9991,2 53250  53.2144 101.8420 0000898 111.4064 248.7024 15.08886923 34491,6917.737,95.435,540.223,538.981,0.0
53250.0,STARLINK-4059,PAYLOAD,2023-03-03 19:25:59,15.08857384,0.0001489,53.2137,100.6529,99.1175,260.9986,0.0021228,0.00033674,0.0,0 STARLINK-4059,1 53250U 22086J   23062.80971230  .00033674  00000-0  21228-2 0  9996,2 53250  53.2137 100.6529 0001489  99.1175 260.9986 15.08857384 34731,6917.827,95.436,540.722,538.662,0.0
53250.0,STARLINK-4059,PAYLOAD,2023-03-04 11:19:49,15.08870783,0.0001516,53.2152,97.678,89.3574,270.7592,0.0016434,0.00025986,0.0,0 STARLINK-4059,1 53250U 22086J   23063.47210559  .00025986  00000-0  16434-2 0  9990,2 53250  53.2152  97.6780 0001516  89.3574 270.7592 15.08870783 34636,6917.786,95.436,540.7,538.603,0.0
53250.0,STARLINK-4059,PAYLOAD,2023-03-04 19:16:45,15.08848379,0.0001208,53.2148,96.1911,108.2248,251.8875,0.00060359,9.333e-05,0.0,0 STARLINK-4059,1 53250U 22086J   23063.80330683  .00009333  00000-0  60359-3 0  9992,2 53250  53.2148  96.1911 0001208 108.2248 251.8875 15.08848379 34683,6917.855,95.437,540.555,538.884,0.0
53250.0,STARLINK-4059,PAYLOAD,2023-03-05 01:38:18,15.08823746,0.0001101,53.2143,95.0023,123.8878,236.2219,5.3237e-05,5.59e-06,0.0,0 STARLINK-4059,1 53250U 22086J   23064.06827183  .00000559  00000-0  53237-4 0  9996,2 53250  53.2143  95.0023 0001101 123.8878 236.2219 15.08823746 34729,6917.93,95.439,540.557,539.033,0.0
53250.0,STARLINK-4059,PAYLOAD,2023-03-05 11:10:37,15.08839339,0.0001347,53.214,93.2184,113.2488,246.8646,0.0021819,0.00034607,0.0,0 STARLINK-4059,1 53250U 22086J   23064.46571553  .00034607  00000-0  21819-2 0  9997,2 53250  53.2140  93.2184 0001347 113.2488 246.8646 15.08839339 34788,6917.882,95.438,540.679,538.816,0.0
53250.0,STARLINK-4059,PAYLOAD,2023-03-05 19:07:33,15.08836345,0.0001547,53.2142,91.7293,107.8895,252.2266,0.0011965,0.00018804,0.0,0 STARLINK-4059,1 53250U 22086J   23064.79691955  .00018804  00000-0  11965-2 0  9994,2 53250  53.2142  91.7293 0001547 107.8895 252.2266 15.08836345 34836,6917.892,95.438,540.827,538.686,0.0
53250.0,STARLINK-4059,PAYLOAD,2023-03-06 18:58:20,15.08847658,0.0001776,53.214,87.2707,78.9282,281.191,0.00069495,0.00010792,0.0,0 STARLINK-4059,1 53250U 22086J   23065.79052081  .00010792  00000-0  69495-3 0  9996,2 53250  53.2140  87.2707 0001776  78.9282 281.1910 15.08847658 34988,6917.857,95.437,540.951,538.493,0.0
